{"type": "FeatureCollection", "features": [ {"type": "Feature", "properties": {"norad_id": 62339, "name": "GPS BIII-7  (PRN 01)", "group": "gps-ops", "lat": 52.737848964367664, "lon": 48.63494292888647, "alt_km": 20175.755274605497, "timestamp": "2025-12-25T22:42:17.270459+00:00", "meta": {"OBJECT_NAME": "GPS BIII-7  (PRN 01)", "OBJECT_ID": "2024-242A", "EPOCH": "2025-12-25T14:06:28.687392", "MEAN_MOTION": 2.00568026, "ECCENTRICITY": 0.0012842, "INCLINATION": 54.9198, "RA_OF_ASC_NODE": 341.2207, "ARG_OF_PERICENTER": 346.3867, "MEAN_ANOMALY": 191.38, "EPHEMERIS_TYPE": 0, "CLASSIFICATION_TYPE": "U", "NORAD_CAT_ID": 62339, "ELEMENT_SET_NO": 999, "REV_AT_EPOCH": 777, "BSTAR": 0, "MEAN_MOTION_DOT": -6e-07, "MEAN_MOTION_DDOT": 0}, "tle": {"line1": "1 62339U 24242A   25359.58783203 -.00000060  00000+0  00000+0 0  9992", "line2": "2 62339  54.9198 341.2207 0012842 346.3867 191.3800  2.00568026  7776"}}, "geometry": {"type": "Point", "coordinates": [48.63494292888647, 52.737848964367664]}}, {"type": "Feature", "properties": {"norad_id": 64202, "name": "GPS BIII-8  (PRN 21)", "group": "gps-ops", "lat": -54.839712521037406, "lon": -59.98865816294326, "alt_km": 20177.483702548794, "timestamp": "2025-12-25T22:42:17.270471+00:00", "meta": {"OBJECT_NAME": "GPS BIII-8  (PRN 21)", "OBJECT_ID": "2025-116A", "EPOCH": "2025-12-25T04:39:33.135264", "MEAN_MOTION": 2.00557406, "ECCENTRICITY": 0.000599, "INCLINATION": 55.1144, "RA_OF_ASC_NODE": 38.1386, "ARG_OF_PERICENTER": 310.9546, "MEAN_ANOMALY": 131.5738, "EPHEMERIS_TYPE": 0, "CLASSIFICATION_TYPE": "U", "NORAD_CAT_ID": 64202, "ELEMENT_SET_NO": 999, "REV_AT_EPOCH": 438, "BSTAR": 0, "MEAN_MOTION_DOT": -5.1e-07, "MEAN_MOTION_DDOT": 0}, "tle": {"line1": "1 64202U 25116A   25359.19413351 -.00000051  00000+0  00000+0 0  9995", "line2": "2 64202  55.1144  38.1386 0005990 310.9546 131.5738  2.00557406  4388"}}, "geometry": {"type": "Point", "coordinates": [-59.98865816294326, -54.839712521037406]}}]}